{
    "creator": "Satellites plugin version 0.10.8 (updated)",
    "hintColor": [
        0.40000000000000002,
        0.40000000000000002,
        0.40000000000000002
    ],
    "satellites": {
        "26985": {
            "comms": [
            ],
            "groups": [
                "geostationary"
            ],
            "lastUpdated": "2017-05-27T18:04:52",
            "name": "DIRECTV 4S",
            "orbitVisible": false,
            "stdMag": 3.5,
            "tle1": "1 26985U 01052A   17146.61139656 -.00000123  00000-0  00000-0 0  9991",
            "tle2": "2 26985   0.0182 332.5561 0001626  90.7869 299.9339  1.00269612 18147",
            "visible": false
        },
        "26998": {
            "comms": [
            ],
            "groups": [
            ],
            "lastUpdated": "2017-05-27T18:04:52",
            "name": "TIMED",
            "orbitVisible": false,
            "stdMag": 5,
            "tle1": "1 26998U 01055B   17146.56475621  .00000135  00000-0  18784-4 0  9991",
            "tle2": "2 26998  74.0723 358.1520 0000975 325.5421  34.5696 14.87895806838217",
            "visible": true
        },
        "27004": {
            "comms": [
            ],
            "groups": [
            ],
            "lastUpdated": "2017-05-27T18:04:52",
            "name": "MAROC-TUBSAT",
            "orbitVisible": false,
            "stdMag": 8,
            "tle1": "1 27004U 01056D   17146.38198525 -.00000045  00000-0 -23107-5 0  9994",
            "tle2": "2 27004  99.3532 286.8317 0020319  35.5230  23.0323 13.70122622773066",
            "visible": true
        },
        "27298": {
            "comms": [
            ],
            "groups": [
                "geostationary"
            ],
            "lastUpdated": "2017-05-27T18:04:52",
            "name": "INSAT-3C",
            "orbitVisible": false,
            "tle1": "1 27298U 02002A   17146.52192792 -.00000268  00000-0  00000-0 0  9995",
            "tle2": "2 27298   0.5796  91.6112 0003068 228.4116 205.6449  1.00269451 56186",
            "visible": false
        },
        "27370": {
            "comms": [
            ],
            "groups": [
            ],
            "lastUpdated": "2017-05-27T18:04:52",
            "name": "RHESSI",
            "orbitVisible": false,
            "stdMag": 6.5,
            "tle1": "1 27370U 02004A   17146.56809079  .00001590  00000-0  61019-4 0  9994",
            "tle2": "2 27370  38.0314 180.5709 0011903 236.3343 123.6292 15.28398938842957",
            "visible": true
        },
        "27372": {
            "comms": [
            ],
            "groups": [
                "iridium",
                "communications"
            ],
            "hintColor": [
                1,
                0.59999999999999998,
                0
            ],
            "lastUpdated": "2017-05-27T18:04:52",
            "name": "IRIDIUM 91",
            "orbitVisible": false,
            "status": 1,
            "stdMag": 5.5,
            "tle1": "1 27372U 02005A   17146.53712323  .00000066  00000-0  16465-4 0  9991",
            "tle2": "2 27372  86.3941 296.2124 0002637 100.1838 302.9590 14.34214677808529",
            "visible": true
        },
        "27373": {
            "comms": [
            ],
            "groups": [
                "iridium",
                "communications"
            ],
            "hintColor": [
                1,
                0.59999999999999998,
                0
            ],
            "lastUpdated": "2017-05-27T18:04:52",
            "name": "IRIDIUM 90",
            "orbitVisible": false,
            "status": 5,
            "stdMag": 5.5,
            "tle1": "1 27373U 02005B   17146.62391844  .00000027  00000-0  20138-5 0  9993",
            "tle2": "2 27373  86.4467 359.0950 0002364  89.4839 270.6632 14.42951511808179",
            "visible": true
        },
        "27374": {
            "comms": [
            ],
            "groups": [
                "iridium",
                "communications"
            ],
            "hintColor": [
                1,
                0.59999999999999998,
                0
            ],
            "lastUpdated": "2017-05-27T18:04:52",
            "name": "IRIDIUM 94",
            "orbitVisible": false,
            "status": 1,
            "stdMag": 5.5,
            "tle1": "1 27374U 02005C   17146.58428664  .00000149  00000-0  46029-4 0  9991",
            "tle2": "2 27374  86.3965 264.7267 0002905 105.0691 329.7759 14.34219109812854",
            "visible": true
        },
        "27375": {
            "comms": [
            ],
            "groups": [
                "iridium",
                "communications"
            ],
            "hintColor": [
                1,
                0.59999999999999998,
                0
            ],
            "lastUpdated": "2017-05-27T18:04:52",
            "name": "IRIDIUM 95",
            "orbitVisible": false,
            "status": 1,
            "stdMag": 5.5,
            "tle1": "1 27375U 02005D   17146.49706684  .00000016  00000-0 -13258-5 0  9996",
            "tle2": "2 27375  86.3935 296.2540 0002521 111.9583 248.1881 14.34213780807770",
            "visible": true
        },
        "27376": {
            "comms": [
            ],
            "groups": [
                "iridium",
                "communications"
            ],
            "hintColor": [
                1,
                0.59999999999999998,
                0
            ],
            "lastUpdated": "2017-05-27T18:04:52",
            "name": "IRIDIUM 96",
            "orbitVisible": false,
            "status": 1,
            "stdMag": 5.5,
            "tle1": "1 27376U 02005E   17146.54484706 -.00000026  00000-0 -16210-4 0  9993",
            "tle2": "2 27376  86.3965 328.2609 0001771 122.0264 238.1104 14.34217581213671",
            "visible": true
        },
        "27378": {
            "comms": [
            ],
            "groups": [
                "geostationary"
            ],
            "lastUpdated": "2017-05-27T18:04:52",
            "name": "ECHOSTAR 7",
            "orbitVisible": false,
            "stdMag": 3,
            "tle1": "1 27378U 02006A   17146.50696405 -.00000010  00000-0  00000-0 0  9991",
            "tle2": "2 27378   0.0120 328.4458 0001366 107.7117 231.8184  1.00271914 17477",
            "visible": false
        },
        "27380": {
            "comms": [
            ],
            "groups": [
                "geostationary"
            ],
            "lastUpdated": "2017-05-27T18:04:52",
            "name": "INTELSAT 904",
            "orbitVisible": false,
            "tle1": "1 27380C 02007A   17149.49427083 -.00002932  00000-0  00000-0 0  1492",
            "tle2": "2 27380   0.0456 125.1544 0002582 296.5129  48.5696  1.00270470    10",
            "visible": false
        },
        "27386": {
            "comms": [
            ],
            "groups": [
                "scientific"
            ],
            "hintColor": [
                0,
                0.59999999999999998,
                0
            ],
            "lastUpdated": "2017-05-27T18:04:52",
            "name": "ENVISAT",
            "orbitVisible": true,
            "stdMag": 3,
            "tle1": "1 27386U 02009A   17146.53616342 -.00000011  00000-0  99584-5 0  9999",
            "tle2": "2 27386  98.2330 192.7166 0001153  79.8366 280.2957 14.37895652797965",
            "visible": true
        },
        "27389": {
            "comms": [
            ],
            "groups": [
                "geostationary"
            ],
            "lastUpdated": "2017-05-27T18:04:52",
            "name": "TDRS 9",
            "orbitVisible": false,
            "stdMag": 3,
            "tle1": "1 27389U 02011A   17146.56346861 -.00000110  00000-0  00000-0 0  9994",
            "tle2": "2 27389   5.2067  79.3395 0018614 253.2704 102.4454  1.00272926 57269",
            "visible": false
        },
        "27391": {
            "comms": [
            ],
            "groups": [
            ],
            "lastUpdated": "2017-05-27T18:04:52",
            "name": "GRACE-1",
            "orbitVisible": false,
            "stdMag": 5.5,
            "tle1": "1 27391U 02012A   17146.57684792  .00009983  00000-0  56413-4 0  9996",
            "tle2": "2 27391  88.9869 324.0183 0008049 104.8570 327.5419 15.78893882173000",
            "visible": true
        },
        "27392": {
            "comms": [
            ],
            "groups": [
            ],
            "lastUpdated": "2017-05-27T18:04:52",
            "name": "GRACE-2",
            "orbitVisible": false,
            "stdMag": 5.5,
            "tle1": "1 27392U 02012B   17146.56444956  .00010094  00000-0  57055-4 0  9990",
            "tle2": "2 27392  88.9883 324.1546 0008040 105.2279 254.9888 15.78890760853980",
            "visible": true
        },
        "27399": {
            "comms": [
            ],
            "groups": [
                "geostationary"
            ],
            "lastUpdated": "2017-05-27T18:04:52",
            "name": "JCSAT 2A",
            "orbitVisible": false,
            "tle1": "1 27399U 02015A   17146.42449469 -.00000316  00000-0  00000-0 0  9990",
            "tle2": "2 27399   0.4339  92.8178 0000125  93.7527 346.5001  1.00271817 55722",
            "visible": false
        },
        "27400": {
            "comms": [
            ],
            "groups": [
                "geostationary"
            ],
            "lastUpdated": "2017-05-27T18:04:52",
            "name": "ASTRA 3A",
            "orbitVisible": false,
            "tle1": "1 27400C 02015B   17146.62500000 -.00000187  00000-0  00000-0 0  1464",
            "tle2": "2 27400   3.7810  68.8461 0001896 353.3168   0.2499  1.00266227    11",
            "visible": false
        }
    },
    "shortName": "satellite orbital data"
}
